{
  "type": "FeatureCollection",
  "crs": {
    "type": "name",
    "properties": {
      "name": "urn:ogc:def:crs:OGC:1.3:CRS84"
    }
  },
  "features": [
    {
      "type": "Feature",
      "geometry": {
        "type": "LineString",
        "coordinates": [
          [
            4.035,
            55.243
          ],
          [
            4.030859,
            55.241493
          ],
          [
            4.026719,
            55.239987
          ],
          [
            4.022578,
            55.23848
          ],
          [
            4.018438,
            55.236973
          ],
          [
            4.014298,
            55.235467
          ],
          [
            4.010158,
            55.23396
          ],
          [
            4.006019,
            55.232454
          ],
          [
            4.001879,
            55.230947
          ],
          [
            3.99774,
            55.22944
          ],
          [
            3.9936,
            55.227934
          ],
          [
            3.989461,
            55.226427
          ],
          [
            3.985322,
            55.22492
          ],
          [
            3.981183,
            55.223414
          ],
          [
            3.977045,
            55.221907
          ],
          [
            3.972906,
            55.2204
          ],
          [
            3.968768,
            55.218894
          ],
          [
            3.96463,
            55.217387
          ],
          [
            3.960492,
            55.215881
          ],
          [
            3.956354,
            55.214374
          ],
          [
            3.952216,
            55.212867
          ],
          [
            3.948079,
            55.211361
          ],
          [
            3.943941,
            55.209854
          ],
          [
            3.939804,
            55.208347
          ],
          [
            3.935667,
            55.206841
          ],
          [
            3.93153,
            55.205334
          ],
          [
            3.927393,
            55.203827
          ],
          [
            3.923257,
            55.202321
          ],
          [
            3.91912,
            55.200814
          ],
          [
            3.914984,
            55.199307
          ],
          [
            3.910848,
            55.197801
          ],
          [
            3.906712,
            55.196294
          ],
          [
            3.902576,
            55.194788
          ],
          [
            3.89844,
            55.193281
          ],
          [
            3.894305,
            55.191774
          ],
          [
            3.89017,
            55.190268
          ],
          [
            3.886034,
            55.188761
          ],
          [
            3.881899,
            55.187254
          ],
          [
            3.877764,
            55.185748
          ],
          [
            3.87363,
            55.184241
          ],
          [
            3.869495,
            55.182734
          ],
          [
            3.865361,
            55.181228
          ],
          [
            3.861226,
            55.179721
          ],
          [
            3.857092,
            55.178214
          ],
          [
            3.852958,
            55.176708
          ],
          [
            3.848825,
            55.175201
          ],
          [
            3.844691,
            55.173694
          ],
          [
            3.840557,
            55.172188
          ],
          [
            3.836424,
            55.170681
          ]
        ]
      },
      "properties": {
        "mode": "hindcast",
        "start_time": "2026-09-16T12:00:00",
        "end_time": "2026-09-16T00:00:00",
        "duration_hours": 12.0,
        "origin_coords": [
          4.035,
          55.243
        ],
        "terminal_coords": [
          3.836424,
          55.170681
        ]
      }
    }
  ]
}