{
  "type": "FeatureCollection",
  "crs": {
    "type": "name",
    "properties": {
      "name": "urn:ogc:def:crs:OGC:1.3:CRS84"
    }
  },
  "features": [
    {
      "type": "Feature",
      "geometry": {
        "type": "LineString",
        "coordinates": [
          [
            4.035,
            55.243
          ],
          [
            4.039141,
            55.244507
          ],
          [
            4.043282,
            55.246013
          ],
          [
            4.047423,
            55.24752
          ],
          [
            4.051564,
            55.249027
          ],
          [
            4.055705,
            55.250533
          ],
          [
            4.059846,
            55.25204
          ],
          [
            4.063988,
            55.253546
          ],
          [
            4.06813,
            55.255053
          ],
          [
            4.072272,
            55.25656
          ],
          [
            4.076414,
            55.258066
          ],
          [
            4.080556,
            55.259573
          ],
          [
            4.084699,
            55.26108
          ],
          [
            4.088841,
            55.262586
          ],
          [
            4.092984,
            55.264093
          ],
          [
            4.097127,
            55.265599
          ],
          [
            4.10127,
            55.267106
          ],
          [
            4.105413,
            55.268613
          ],
          [
            4.109556,
            55.270119
          ],
          [
            4.1137,
            55.271626
          ],
          [
            4.117843,
            55.273133
          ],
          [
            4.121987,
            55.274639
          ],
          [
            4.126131,
            55.276146
          ],
          [
            4.130275,
            55.277652
          ],
          [
            4.13442,
            55.279159
          ],
          [
            4.138564,
            55.280666
          ],
          [
            4.142709,
            55.282172
          ],
          [
            4.146853,
            55.283679
          ],
          [
            4.150998,
            55.285186
          ],
          [
            4.155143,
            55.286692
          ],
          [
            4.159289,
            55.288199
          ],
          [
            4.163434,
            55.289705
          ],
          [
            4.16758,
            55.291212
          ],
          [
            4.171725,
            55.292719
          ],
          [
            4.175871,
            55.294225
          ],
          [
            4.180017,
            55.295732
          ],
          [
            4.184163,
            55.297239
          ],
          [
            4.18831,
            55.298745
          ],
          [
            4.192456,
            55.300252
          ],
          [
            4.196603,
            55.301758
          ],
          [
            4.20075,
            55.303265
          ],
          [
            4.204897,
            55.304772
          ],
          [
            4.209044,
            55.306278
          ],
          [
            4.213191,
            55.307785
          ],
          [
            4.217339,
            55.309291
          ],
          [
            4.221486,
            55.310798
          ],
          [
            4.225634,
            55.312305
          ],
          [
            4.229782,
            55.313811
          ],
          [
            4.23393,
            55.315318
          ]
        ]
      },
      "properties": {
        "mode": "forecast",
        "start_time": "2026-09-16T12:00:00",
        "end_time": "2026-09-17T00:00:00",
        "duration_hours": 12.0,
        "origin_coords": [
          4.035,
          55.243
        ],
        "terminal_coords": [
          4.23393,
          55.315318
        ]
      }
    }
  ]
}